[
    {
        "Altitude(m)": 607886.7378091316,
        "Argument of Periapsis(deg)": 0.0,
        "Eccentricity": 0.0,
        "Inclination(deg)": 60.0,
        "Latitude(deg)": 40.99856922847919,
        "Longitude(deg)": 124.97298959206483,
        "Mean Anomaly(deg)": 49.09090000000002,
        "RAAN(deg)": 195.00000000000003,
        "Satellite Name": "Test1 861",
        "Satellite Number": 861,
        "Semi-Major Axis(m)": 6980739.136638005,
        "Time(s)": 0
    },
    {
        "Altitude(m)": 607987.6519121496,
        "Argument of Periapsis(deg)": 0.00010418945913296404,
        "Eccentricity": 0.0,
        "Inclination(deg)": 60.0,
        "Latitude(deg)": 41.46365918499611,
        "Longitude(deg)": 125.47721859885142,
        "Mean Anomaly(deg)": 49.71100614546182,
        "RAAN(deg)": 194.99957995086024,
        "Satellite Name": "Test1 861",
        "Satellite Number": 861,
        "Semi-Major Axis(m)": 6980739.136638005,
        "Time(s)": 10
    }
]